OBJECT_NAME,OBJECT_ID,EPOCH,MEAN_MOTION,ECCENTRICITY,INCLINATION,RA_OF_ASC_NODE,ARG_OF_PERICENTER,MEAN_ANOMALY,EPHEMERIS_TYPE,CLASSIFICATION_TYPE,NORAD_CAT_ID,ELEMENT_SET_NO,REV_AT_EPOCH,BSTAR,MEAN_MOTION_DOT,MEAN_MOTION_DDOT
CUTE-1 (CO-55),2003-031E,2026-07-07T11:30:08.420832,14.24348198,.0010633,98.6738,196.7829,122.6531,237.5675,0,U,27844,999,19456,.12008E-3,.234E-5,0
CUBESAT XI-IV (CO-57),2003-031J,2026-07-07T11:28:11.924256,14.23631593,.001021,98.6771,196.4779,139.6847,220.5090,0,U,27848,999,19426,.10456E-3,.195E-5,0
CUBESAT XI-V,2005-043F,2026-07-06T21:40:08.857056,14.72686848,.0014934,98.3006,343.9413,139.5987,220.6332,0,U,28895,999,10465,.21205E-3,.1301E-4,0
CUTE-1.7+APD II (CO-65),2008-021C,2026-07-07T11:11:15.294336,15.09654126,.0007557,97.8289,170.3099,331.2407,28.8404,0,U,32785,999,98825,.19808E-3,.3122E-4,0
CANX-2,2008-021H,2026-07-07T10:11:12.750432,15.05770134,.0009592,97.8649,168.5977,344.8002,15.2934,0,U,32790,999,98785,.23274E-3,.3309E-4,0
SEEDS II (CO-66),2008-021J,2026-07-06T23:27:44.284032,15.33467667,.0002095,97.7526,186.8299,175.3299,184.7963,0,U,32791,999,99032,.41928E-3,.13488E-3,0
SWISSCUBE,2009-051B,2026-07-07T05:09:11.568672,14.62520493,.0007414,98.4018,96.4508,140.7711,219.4029,0,U,35932,999,89208,.17976E-3,.862E-5,0
BEESAT-1,2009-051C,2026-07-06T16:29:16.621152,14.61752775,.0005594,98.3946,95.5083,152.8546,207.2947,0,U,35933,999,89203,.17521E-3,.825E-5,0
ITUPSAT1,2009-051E,2026-07-06T23:15:23.766048,14.60470414,.0007491,98.4029,94.9654,167.2439,192.8951,0,U,35935,999,89162,.14806E-3,.669E-5,0
TISAT 1,2010-035E,2026-07-07T07:09:50.878656,15.32521446,.0004079,98.0714,136.6429,127.2476,232.9136,0,U,36799,999,87078,.53881E-3,.16855E-3,0
AEROCUBE 4.5A,2012-048K,2026-06-29T19:35:03.540480,16.17962819,.00188678,64.6148,340.0554,267.4936,92.4076,0,U,38767,999,37468,.11805476E-2,.2026816E-1,.7424434E-5
STRAND-1,2013-009E,2026-07-07T10:55:21.902304,14.37175624,.0008963,98.3931,8.1913,162.7349,197.4144,0,U,39090,999,69997,.93038E-4,.234E-5,0
BRITE-AUSTRIA,2013-009F,2026-07-07T11:26:33.335808,14.36550284,.0010287,98.4005,7.4112,172.8731,187.2604,0,U,39091,999,69996,.62513E-4,.141E-5,0
NEE-01 PEGASO,2013-018B,2026-07-06T21:26:17.199168,14.93765912,.0013985,98.1252,332.6981,99.0383,261.2419,0,U,39151,999,71364,.25827E-3,.268E-4,0
POPACS 2,2013-055E,2026-07-07T05:40:44.006016,14.91798174,.0415561,80.9913,121.2377,129.4242,234.4544,0,U,39269,999,66620,.22422E-3,.13687E-3,-.86834E-6
POPACS 3,2013-055F,2026-07-07T01:02:40.841664,14.56515300,.0549801,80.9994,207.6517,9.5415,351.5717,0,U,39270,999,64144,.21283E-3,.8998E-4,0
ZACUBE-1 (TSHEPISOSAT),2013-066B,2026-07-07T11:16:39.129312,15.01305441,.004351,97.8022,150.9081,179.9834,180.1399,0,U,39417,999,68377,.14444E-3,.1831E-4,0
WNISAT-1,2013-066H,2026-07-07T09:17:19.285728,14.58107516,.0163343,97.7226,336.1120,167.8024,192.7206,0,U,39423,999,66967,.21301E-3,.113E-4,0
TRITON-1,2013-066M,2026-07-07T13:18:45.100224,14.81776652,.0089926,97.8224,97.8967,166.9149,193.4428,0,U,39427,999,67710,.14948E-3,.1208E-4,0
GOMX-1,2013-066Q,2026-07-07T11:27:07.346304,14.69530831,.0128949,97.6474,27.6589,12.9864,347.4611,0,U,39430,999,67289,.25034E-3,.1636E-4,0
CUBEBUG-2 (LO-74),2013-066AA,2026-07-07T07:00:14.378112,14.93935374,.0056237,97.8912,137.3576,322.3373,37.3914,0,U,39440,999,67999,.23991E-3,.257E-4,0
NEE-02 KRYSAOR,2013-066AB,2026-07-07T06:23:24.243648,14.86716549,.0066148,97.8888,127.3388,5.3708,354.8202,0,U,39441,999,67918,.21194E-3,.1902E-4,0
FUNCUBE-1 (AO-73),2013-066AE,2026-07-06T21:00:48.915360,15.09744377,.0037536,97.8282,159.7358,134.9216,225.5068,0,U,39444,999,68263,.37306E-3,.6051E-4,0
UWE-3,2013-066AG,2026-07-07T08:00:24.462144,14.97168353,.0047497,97.8699,144.5465,252.0164,107.5878,0,U,39446,999,68059,.18297E-3,.2099E-4,0
BRITE-CA1 (TORONTO),2014-033L,2026-07-06T21:03:33.808032,14.72711122,.0077849,97.9763,316.4452,213.0292,146.6041,0,U,40020,999,64511,.14459E-3,.913E-5,0
DUCHIFAT-1,2014-033M,2026-07-06T16:39:29.772576,15.69242725,.0001149,98.0433,249.6610,272.1887,87.9241,0,U,40021,999,65880,.10018E-2,.117855E-2,0
NANOSATC-BR1,2014-033Q,2026-07-07T07:48:47.140704,15.32146748,.0005269,98.0715,222.5062,115.7199,244.4585,0,U,40024,999,65706,.3984E-3,.12288E-3,0
QB50P1,2014-033R,2026-07-06T23:39:44.400384,15.18579991,.0009775,98.0969,200.5237,149.2946,210.8860,0,U,40025,999,65603,.3291E-3,.6736E-4,0
QB50P2,2014-033Y,2026-07-07T10:32:09.903264,15.15438659,.0009353,98.0762,186.5837,105.2659,254.9607,0,U,40032,999,65573,.23683E-3,.4406E-4,0
PERSEUS-M2,2014-033AD,2026-07-07T12:52:40.328832,14.95571012,.0010662,97.9966,139.4924,227.7250,132.3067,0,U,40037,999,65382,.14442E-3,.1542E-4,0
